METHANESAT              
1 59101U 24043D   25185.91516268  .00001888  00000+0  17585-3 0  9991
2 59101  97.8028 311.8976 0012507  90.2246 270.0408 14.95442336 72703
GOSAT-GW (IBUKI GW)     
1 64694U 25141A   25186.07460553  .00000700  00000+0  13069-3 0  9992
2 64694  98.0589 124.6926 0000981  20.7134 339.4110 14.67921371   939
GHGSAT-C1               
1 46278U 20061G   25186.15738392  .00012731  00000+0  21931-3 0  9998
2 46278  97.2503 259.9778 0001370 183.0877 177.0368 15.51198239269370
GHGSAT-C2               
1 47509U 21006DA  25185.67437241  .00004636  00000+0  14989-3 0  9991
2 47509  97.2672 234.0042 0005222 354.7656   5.3531 15.32551817246537
GHGSAT-C3               
1 52737U 22057F   25186.16297935  .00005318  00000+0  19459-3 0  9991
2 52737  97.6145 316.4338 0005306 266.2866  93.7766 15.28490240172425
GHGSAT-C4               
1 52746U 22057Q   25186.24679473  .00005338  00000+0  19520-3 0  9992
2 52746  97.6076 315.6938 0005649 248.2398 111.8240 15.28507515172440
GHGSAT-C5               
1 52744U 22057N   25186.19767927  .00005156  00000+0  18843-3 0  9991
2 52744  97.6233 317.6409 0006321 262.9486  97.1034 15.28542545172435
GHGSAT-C6               
1 56204U 23054AC  25186.22625004  .00008884  00000+0  20989-3 0  9992
2 56204  97.3302  87.3800 0007940 212.4429 147.6331 15.42051070124808
GHGSAT-C7               
1 56209U 23054AH  25186.22820577  .00007347  00000+0  17823-3 0  9995
2 56209  97.3264  86.9649 0008177 205.5186 154.5659 15.41312816124809
GHGSAT-C8               
1 56186U 23054J   25186.20140653  .00009063  00000+0  21405-3 0  9995
2 56186  97.3272  86.8477 0004664 232.0605 128.0222 15.42074531124787
SENTINEL-5P             
1 42969U 17064A   25185.84867474  .00000038  00000+0  38927-4 0  9990
2 42969  98.7583 126.0623 0001233  93.7550 266.3767 14.19530680400288
ENMAP                   
1 52159U 22033C   25185.89669716  .00000341  00000+0  58217-4 0  9999
2 52159  97.9788 268.1344 0001394  94.6699 265.4669 14.74997704175463
PRISMA                  
1 44072U 19015A   25186.21996622  .00000677  00000+0  88467-4 0  9998
2 44072  97.8750 260.9517 0001556  91.9946 268.1446 14.83658846340607
SENTINEL-2A             
1 40697U 15028A   25186.22171025  .00000085  00000+0  49260-4 0  9991
2 40697  98.5690 261.0497 0001212  93.0524 267.0797 14.30814447524110
SENTINEL-2B             
1 42063U 17013A   25186.21454319  .00000084  00000+0  48658-4 0  9994
2 42063  98.5693 260.9840 0001167  99.4934 260.6381 14.30816351435032
SENTINEL-2C             
1 60989U 24157A   25185.83015103  .00000077  00000+0  45963-4 0  9997
2 60989  98.5682 260.6815 0001177  95.8755 264.2562 14.30814953 43311
LANDSAT 8               
1 39084U 13008A   25186.17534317  .00000262  00000+0  68194-4 0  9990
2 39084  98.2249 256.4348 0001363  90.7513 269.3842 14.57111032659188
LANDSAT 9               
1 49260U 21088A   25186.20964956  .00000310  00000+0  78807-4 0  9990
2 49260  98.2270 256.4638 0001484  93.3993 266.7375 14.57110684200463
TANAGER-1               
1 60507U 24149AR  25185.74317662  .00019886  00000+0  44118-3 0  9997
2 60507  97.4095 270.2104 0011712 250.0916 109.9070 15.43695264 49436
